{
  "norad_id": 52623,
  "name": "STARLINK-3986",
  "history": [
    {
      "epoch": "2026-03-28T17:47:21.537600",
      "apogee_km": 540.6645031293328,
      "perigee_km": 538.7817383188758,
      "latitude_deg": -49.74278806031756,
      "longitude_deg": -126.54273599991575,
      "semi_major_axis_km": 6917.860120724104,
      "eccentricity": 0.00013608,
      "inclination_deg": 53.2161,
      "raan_deg": 183.5949,
      "arg_perigee_deg": 86.9299,
      "mean_anomaly_deg": 273.1849,
      "mean_motion_rev_day": 15.08846631
    }
  ]
}